{
  "norad_id": 58096,
  "name": "STARLINK-30581",
  "history": [
    {
      "epoch": "2026-04-13T01:50:07.368288Z",
      "apogee_km": 483.9346360040827,
      "perigee_km": 482.18173785772524,
      "latitude_deg": 3.761861663047456e-05,
      "longitude_deg": 14.97009330918533,
      "height_km": 482.98593529541074,
      "semi_major_axis_km": 6861.195186930904,
      "eccentricity": 0.00012774,
      "inclination_deg": 43.001,
      "raan_deg": 243.7732,
      "arg_perigee_deg": 260.074,
      "mean_anomaly_deg": 99.9968,
      "mean_motion_rev_day": 15.27576964
    },
    {
      "epoch": "2026-04-14T15:29:52.749024Z",
      "apogee_km": 483.99379435499486,
      "perigee_km": 482.1179442245302,
      "latitude_deg": -1.4104065884257689e-05,
      "longitude_deg": 159.6233050138941,
      "height_km": 482.881014990296,
      "semi_major_axis_km": 6861.192869289762,
      "eccentricity": 0.0001367,
      "inclination_deg": 43.0026,
      "raan_deg": 234.9123,
      "arg_perigee_deg": 267.055,
      "mean_anomaly_deg": 93.0145,
      "mean_motion_rev_day": 15.27577738
    },
    {
      "epoch": "2026-04-15T15:02:13.629696Z",
      "apogee_km": 484.23540938055066,
      "perigee_km": 481.8943672962505,
      "latitude_deg": 5.76696442211876e-05,
      "longitude_deg": 160.03056267438407,
      "height_km": 482.85267852671075,
      "semi_major_axis_km": 6861.201888338401,
      "eccentricity": 0.0001706,
      "inclination_deg": 43.0031,
      "raan_deg": 229.3732,
      "arg_perigee_deg": 269.4859,
      "mean_anomaly_deg": 90.5798,
      "mean_motion_rev_day": 15.27574726
    },
    {
      "epoch": "2026-04-16T17:42:53.237952Z",
      "apogee_km": 483.9612274607889,
      "perigee_km": 482.13203590458306,
      "latitude_deg": 1.3715463899511493e-06,
      "longitude_deg": 112.49155745222377,
      "height_km": 482.78805716959704,
      "semi_major_axis_km": 6861.183631682686,
      "eccentricity": 0.0001333,
      "inclination_deg": 43.0017,
      "raan_deg": 223.0949,
      "arg_perigee_deg": 272.2191,
      "mean_anomaly_deg": 87.8508,
      "mean_motion_rev_day": 15.27580823
    },
    {
      "epoch": "2026-04-17T14:06:54.985824Z",
      "apogee_km": 484.00324774559977,
      "perigee_km": 482.10228650871977,
      "latitude_deg": 4.441296373717625e-06,
      "longitude_deg": 160.84556093187143,
      "height_km": 482.8553668175922,
      "semi_major_axis_km": 6861.189767127159,
      "eccentricity": 0.00013853,
      "inclination_deg": 43.0013,
      "raan_deg": 218.294,
      "arg_perigee_deg": 268.4464,
      "mean_anomaly_deg": 91.6229,
      "mean_motion_rev_day": 15.27578774
    },
    {
      "epoch": "2026-04-18T13:39:15.374016Z",
      "apogee_km": 483.9567397088358,
      "perigee_km": 482.0575750060798,
      "latitude_deg": 5.611323592900316e-05,
      "longitude_deg": 161.25515346120923,
      "height_km": 482.8970837109557,
      "semi_major_axis_km": 6861.1441573574575,
      "eccentricity": 0.0001384,
      "inclination_deg": 43.0016,
      "raan_deg": 212.7552,
      "arg_perigee_deg": 263.1601,
      "mean_anomaly_deg": 96.9094,
      "mean_motion_rev_day": 15.27594006
    },
    {
      "epoch": "2026-04-19T14:45:47.306304Z",
      "apogee_km": 483.87442616554745,
      "perigee_km": 482.3567170967026,
      "latitude_deg": 7.5977307986053925e-06,
      "longitude_deg": 137.68246509547515,
      "height_km": 482.9875198287505,
      "semi_major_axis_km": 6861.252571631125,
      "eccentricity": 0.0001106,
      "inclination_deg": 43.001,
      "raan_deg": 206.8468,
      "arg_perigee_deg": 262.7776,
      "mean_anomaly_deg": 97.295,
      "mean_motion_rev_day": 15.275578
    },
    {
      "epoch": "2026-04-20T12:43:58.325952Z",
      "apogee_km": 484.4478241291872,
      "perigee_km": 481.727622975287,
      "latitude_deg": 1.7600772955478842e-05,
      "longitude_deg": 162.06199424998533,
      "height_km": 482.9315042848619,
      "semi_major_axis_km": 6861.224723552236,
      "eccentricity": 0.00019823,
      "inclination_deg": 43.0015,
      "raan_deg": 201.6745,
      "arg_perigee_deg": 267.199,
      "mean_anomaly_deg": 92.8635,
      "mean_motion_rev_day": 15.275671
    },
    {
      "epoch": "2026-04-21T16:58:46.538976Z",
      "apogee_km": 483.6997789315283,
      "perigee_km": 482.37557221914267,
      "latitude_deg": -3.934975571354101e-06,
      "longitude_deg": 90.55572898399805,
      "height_km": 482.8335837678368,
      "semi_major_axis_km": 6861.174675575336,
      "eccentricity": 9.65e-05,
      "inclination_deg": 42.9993,
      "raan_deg": 195.0292,
      "arg_perigee_deg": 268.2984,
      "mean_anomaly_deg": 91.7757,
      "mean_motion_rev_day": 15.27583814
    },
    {
      "epoch": "2026-04-22T16:31:07.576032Z",
      "apogee_km": 484.17335276815356,
      "perigee_km": 481.94346426038555,
      "latitude_deg": -6.736592263577968e-06,
      "longitude_deg": 90.96194951119277,
      "height_km": 483.02352003808636,
      "semi_major_axis_km": 6861.195408514269,
      "eccentricity": 0.0001625,
      "inclination_deg": 43.0004,
      "raan_deg": 189.4898,
      "arg_perigee_deg": 260.2807,
      "mean_anomaly_deg": 99.7861,
      "mean_motion_rev_day": 15.2757689
    },
    {
      "epoch": "2026-04-23T12:55:08.949792Z",
      "apogee_km": 484.1974289622649,
      "perigee_km": 481.85969263238985,
      "latitude_deg": -9.13202633577806e-06,
      "longitude_deg": 139.31870734105763,
      "height_km": 482.90627180915845,
      "semi_major_axis_km": 6861.165560797327,
      "eccentricity": 0.00017036,
      "inclination_deg": 43.0005,
      "raan_deg": 184.6901,
      "arg_perigee_deg": 265.0564,
      "mean_anomaly_deg": 95.0093,
      "mean_motion_rev_day": 15.27586858
    },
    {
      "epoch": "2026-04-24T10:53:20.625216Z",
      "apogee_km": 484.3403405693225,
      "perigee_km": 481.7468143110509,
      "latitude_deg": -1.155463654543895e-05,
      "longitude_deg": 163.6984837917102,
      "height_km": 482.86680918225113,
      "semi_major_axis_km": 6861.180577440186,
      "eccentricity": 0.000189,
      "inclination_deg": 43.0003,
      "raan_deg": 179.5208,
      "arg_perigee_deg": 267.9621,
      "mean_anomaly_deg": 92.1014,
      "mean_motion_rev_day": 15.27581843
    },
    {
      "epoch": "2026-04-25T04:09:03.610944Z",
      "apogee_km": 484.375103730149,
      "perigee_km": 481.68525174978913,
      "latitude_deg": -6.6836665058866444e-06,
      "longitude_deg": -100.00134142153847,
      "height_km": 482.84965310682486,
      "semi_major_axis_km": 6861.167177739969,
      "eccentricity": 0.00019602,
      "inclination_deg": 43.0002,
      "raan_deg": 175.459,
      "arg_perigee_deg": 268.197,
      "mean_anomaly_deg": 91.8657,
      "mean_motion_rev_day": 15.27586318
    },
    {
      "epoch": "2026-04-26T09:58:02.358048Z",
      "apogee_km": 483.8196317920274,
      "perigee_km": 482.28972327177144,
      "latitude_deg": 8.375234359128075e-06,
      "longitude_deg": 164.5071825273666,
      "height_km": 483.2509150979778,
      "semi_major_axis_km": 6861.191677531899,
      "eccentricity": 0.00011149,
      "inclination_deg": 42.994,
      "raan_deg": 168.4368,
      "arg_perigee_deg": 236.6381,
      "mean_anomaly_deg": 123.4364,
      "mean_motion_rev_day": 15.27578136
    },
    {
      "epoch": "2026-04-27T09:30:22.911264Z",
      "apogee_km": 484.36585252033365,
      "perigee_km": 481.70783377349835,
      "latitude_deg": 7.085949722975127e-06,
      "longitude_deg": 164.91912927363006,
      "height_km": 483.1260362516364,
      "semi_major_axis_km": 6861.173843146916,
      "eccentricity": 0.0001937,
      "inclination_deg": 42.9996,
      "raan_deg": 162.9011,
      "arg_perigee_deg": 256.4137,
      "mean_anomaly_deg": 103.6499,
      "mean_motion_rev_day": 15.27584092
    },
    {
      "epoch": "2026-04-28T12:11:03.692832Z",
      "apogee_km": 484.8936161808124,
      "perigee_km": 481.2983301028871,
      "latitude_deg": -6.741860871656284e-06,
      "longitude_deg": 117.38436586637226,
      "height_km": 482.3982634973293,
      "semi_major_axis_km": 6861.2329731418495,
      "eccentricity": 0.000262,
      "inclination_deg": 43.0066,
      "raan_deg": 156.6319,
      "arg_perigee_deg": 285.3566,
      "mean_anomaly_deg": 74.6996,
      "mean_motion_rev_day": 15.27564345
    },
    {
      "epoch": "2026-04-29T03:52:39.173664Z",
      "apogee_km": 484.56309890823195,
      "perigee_km": 481.67697974720795,
      "latitude_deg": 5.284065599251401e-05,
      "longitude_deg": -122.35160338693531,
      "height_km": 482.68491925571783,
      "semi_major_axis_km": 6861.257039327719,
      "eccentricity": 0.00021032,
      "inclination_deg": 43.0036,
      "raan_deg": 152.9382,
      "arg_perigee_deg": 278.4793,
      "mean_anomaly_deg": 81.5821,
      "mean_motion_rev_day": 15.27556308
    },
    {
      "epoch": "2026-04-30T08:07:26.467392Z",
      "apogee_km": 484.06901022054444,
      "perigee_km": 482.07294759532033,
      "latitude_deg": 3.829916226286466e-05,
      "longitude_deg": 166.1412826387778,
      "height_km": 483.2794539097147,
      "semi_major_axis_km": 6861.207978907933,
      "eccentricity": 0.00014546,
      "inclination_deg": 43.0046,
      "raan_deg": 146.2882,
      "arg_perigee_deg": 244.3896,
      "mean_anomaly_deg": 115.6806,
      "mean_motion_rev_day": 15.27572692
    },
    {
      "epoch": "2026-05-02T07:12:07.877088Z",
      "apogee_km": 483.72295623115315,
      "perigee_km": 482.3918845136013,
      "latitude_deg": 2.2582911233553015e-05,
      "longitude_deg": 166.95809144405953,
      "height_km": 483.3732388799802,
      "semi_major_axis_km": 6861.194420372377,
      "eccentricity": 9.7e-05,
      "inclination_deg": 43.0047,
      "raan_deg": 135.211,
      "arg_perigee_deg": 215.8565,
      "mean_anomaly_deg": 144.2222,
      "mean_motion_rev_day": 15.2757722
    }
  ]
}